SL-3 R/B                
1 13403U 82079B   26038.60680179  .00007307  00000+0  29507-3 0  9995
2 13403  81.1442 228.5885 0024109 268.3294  91.5177 15.24360167373111
SL-14 R/B               
1 13553U 82092B   26038.42249727  .00000784  00000+0  85303-4 0  9995
2 13553  82.5701 169.7003 0021392  44.8196  15.4677 14.86632617324437
SL-3 R/B                
1 13819U 83010B   26038.46602724  .00018752  00000+0  39054-3 0  9990
2 13819  81.1024  39.2723 0017883 147.2006 213.0353 15.45288971353270
SL-3 R/B                
1 14208U 83075B   26038.56394750  .00015231  00000+0  41117-3 0  9994
2 14208  97.6135  42.0239 0021266 343.0772  16.9760 15.37638942325525
COSMOS 1536             
1 14699U 84013A   26038.64058559  .00007899  00000+0  32942-3 0  9991
2 14699  82.5469 137.7041 0014990  33.3154 326.9023 15.23425748268046
SL-14 R/B               
1 14820U 84027B   26038.66034938  .00000565  00000+0  61790-4 0  9996
2 14820  82.5399 273.1829 0019492  74.2808 286.0557 14.85947111243170
SL-8 R/B                
1 15483U 85006B   26038.19142338  .00000351  00000+0  12498-3 0  9995
2 15483  74.0473 317.2671 0019556 240.9197 229.2515 14.37768033149645
SL-12 R/B(2)            
1 15772U 85042D   26038.66399821  .00000179  00000+0  10211-3 0  9998
2 15772  71.1087 151.1633 0034992 176.1973 283.5300 14.21973772110128
SL-14 R/B               
1 15945U 85069B   26038.51958096  .00000674  00000+0  73480-4 0  9996
2 15945  82.5240  53.3092 0017322 294.5509  65.3902 14.86397603168353
SL-16 R/B               
1 16182U 85097B   26038.62517517 -.00000034  00000+0  71501-5 0  9996
2 16182  71.0016 203.8439 0009593 294.8421 136.8700 14.16596400 82977
SL-14 R/B               
1 16496U 86006B   26038.63917087  .00000955  00000+0  98763-4 0  9991
2 16496  82.5269 288.0217 0077026  13.4795 346.8454 14.86774064144740
COSMOS 1743             
1 16719U 86034A   26038.63673132  .00037421  00000+0  52843-3 0  9996
2 16719  82.5329 105.3161 0005127  55.3863 304.7874 15.56379282175573
