CCSDS_OMM_VERS = 2.0
CREATION_DATE  = 
ORIGINATOR     = 

OBJECT_NAME    = SL-3 R/B
OBJECT_ID      = 1982-079B
CENTER_NAME    = EARTH
REF_FRAME      = TEME
TIME_SYSTEM    = UTC
MEAN_ELEMENT_THEORY = SGP/SGP4

EPOCH          = 2026-02-07T14:33:47.674656
MEAN_MOTION    = 15.24360167
ECCENTRICITY   = .00241094
INCLINATION    = 81.1442
RA_OF_ASC_NODE = 228.5885
ARG_OF_PERICENTER = 268.3294
MEAN_ANOMALY   = 91.5177

EPHEMERIS_TYPE = 0
CLASSIFICATION_TYPE = U
NORAD_CAT_ID   = 13403
ELEMENT_SET_NO = 999
REV_AT_EPOCH   = 37311
BSTAR          = .29507269E-3
MEAN_MOTION_DOT = .7307E-4
MEAN_MOTION_DDOT = 0

CCSDS_OMM_VERS = 2.0
CREATION_DATE  = 
ORIGINATOR     = 

OBJECT_NAME    = SL-14 R/B
OBJECT_ID      = 1982-092B
CENTER_NAME    = EARTH
REF_FRAME      = TEME
TIME_SYSTEM    = UTC
MEAN_ELEMENT_THEORY = SGP/SGP4

EPOCH          = 2026-02-07T10:08:23.764128
MEAN_MOTION    = 14.86632617
ECCENTRICITY   = .0021392
INCLINATION    = 82.5701
RA_OF_ASC_NODE = 169.7003
ARG_OF_PERICENTER = 44.8196
MEAN_ANOMALY   = 15.4677

EPHEMERIS_TYPE = 0
CLASSIFICATION_TYPE = U
NORAD_CAT_ID   = 13553
ELEMENT_SET_NO = 999
REV_AT_EPOCH   = 32443
BSTAR          = .85303094E-4
MEAN_MOTION_DOT = .784E-5
MEAN_MOTION_DDOT = 0

CCSDS_OMM_VERS = 2.0
CREATION_DATE  = 
ORIGINATOR     = 

OBJECT_NAME    = SL-3 R/B
OBJECT_ID      = 1983-010B
CENTER_NAME    = EARTH
REF_FRAME      = TEME
TIME_SYSTEM    = UTC
MEAN_ELEMENT_THEORY = SGP/SGP4

EPOCH          = 2026-02-07T11:11:04.753536
MEAN_MOTION    = 15.45288971
ECCENTRICITY   = .00178836
INCLINATION    = 81.1024
RA_OF_ASC_NODE = 39.2723
ARG_OF_PERICENTER = 147.2006
MEAN_ANOMALY   = 213.0353

EPHEMERIS_TYPE = 0
CLASSIFICATION_TYPE = U
NORAD_CAT_ID   = 13819
ELEMENT_SET_NO = 999
REV_AT_EPOCH   = 35327
BSTAR          = .39053879E-3
MEAN_MOTION_DOT = .18752E-3
MEAN_MOTION_DDOT = 0

CCSDS_OMM_VERS = 2.0
CREATION_DATE  = 
ORIGINATOR     = 

OBJECT_NAME    = SL-3 R/B
OBJECT_ID      = 1983-075B
CENTER_NAME    = EARTH
REF_FRAME      = TEME
TIME_SYSTEM    = UTC
MEAN_ELEMENT_THEORY = SGP/SGP4

EPOCH          = 2026-02-07T13:32:05.064000
MEAN_MOTION    = 15.37638942
ECCENTRICITY   = .00212669
INCLINATION    = 97.6135
RA_OF_ASC_NODE = 42.0239
ARG_OF_PERICENTER = 343.0772
MEAN_ANOMALY   = 16.9760

EPHEMERIS_TYPE = 0
CLASSIFICATION_TYPE = U
NORAD_CAT_ID   = 14208
ELEMENT_SET_NO = 999
REV_AT_EPOCH   = 32552
BSTAR          = .41117046E-3
MEAN_MOTION_DOT = .15231E-3
MEAN_MOTION_DDOT = 0

CCSDS_OMM_VERS = 2.0
CREATION_DATE  = 
ORIGINATOR     = 

OBJECT_NAME    = COSMOS 1536
OBJECT_ID      = 1984-013A
CENTER_NAME    = EARTH
REF_FRAME      = TEME
TIME_SYSTEM    = UTC
MEAN_ELEMENT_THEORY = SGP/SGP4

EPOCH          = 2026-02-07T15:22:26.594976
MEAN_MOTION    = 15.23425748
ECCENTRICITY   = .00149904
INCLINATION    = 82.5469
RA_OF_ASC_NODE = 137.7041
ARG_OF_PERICENTER = 33.3154
MEAN_ANOMALY   = 326.9023

EPHEMERIS_TYPE = 0
CLASSIFICATION_TYPE = U
NORAD_CAT_ID   = 14699
ELEMENT_SET_NO = 999
REV_AT_EPOCH   = 26804
BSTAR          = .32941683E-3
MEAN_MOTION_DOT = .7899E-4
MEAN_MOTION_DDOT = 0

CCSDS_OMM_VERS = 2.0
CREATION_DATE  = 
ORIGINATOR     = 

OBJECT_NAME    = SL-14 R/B
OBJECT_ID      = 1984-027B
CENTER_NAME    = EARTH
REF_FRAME      = TEME
TIME_SYSTEM    = UTC
MEAN_ELEMENT_THEORY = SGP/SGP4

EPOCH          = 2026-02-07T15:50:54.186432
MEAN_MOTION    = 14.85947111
ECCENTRICITY   = .00194924
INCLINATION    = 82.5399
RA_OF_ASC_NODE = 273.1829
ARG_OF_PERICENTER = 74.2808
MEAN_ANOMALY   = 286.0557

EPHEMERIS_TYPE = 0
CLASSIFICATION_TYPE = U
NORAD_CAT_ID   = 14820
ELEMENT_SET_NO = 999
REV_AT_EPOCH   = 24317
BSTAR          = .61790452E-4
MEAN_MOTION_DOT = .565E-5
MEAN_MOTION_DDOT = 0

CCSDS_OMM_VERS = 2.0
CREATION_DATE  = 
ORIGINATOR     = 

OBJECT_NAME    = SL-8 R/B
OBJECT_ID      = 1985-006B
CENTER_NAME    = EARTH
REF_FRAME      = TEME
TIME_SYSTEM    = UTC
MEAN_ELEMENT_THEORY = SGP/SGP4

EPOCH          = 2026-02-07T04:35:38.980032
MEAN_MOTION    = 14.37768033
ECCENTRICITY   = .00195563
INCLINATION    = 74.0473
RA_OF_ASC_NODE = 317.2671
ARG_OF_PERICENTER = 240.9197
MEAN_ANOMALY   = 229.2515

EPHEMERIS_TYPE = 0
CLASSIFICATION_TYPE = U
NORAD_CAT_ID   = 15483
ELEMENT_SET_NO = 999
REV_AT_EPOCH   = 14964
BSTAR          = .12497528E-3
MEAN_MOTION_DOT = .351E-5
MEAN_MOTION_DDOT = 0

CCSDS_OMM_VERS = 2.0
CREATION_DATE  = 
ORIGINATOR     = 

OBJECT_NAME    = SL-12 R/B(2)
OBJECT_ID      = 1985-042D
CENTER_NAME    = EARTH
REF_FRAME      = TEME
TIME_SYSTEM    = UTC
MEAN_ELEMENT_THEORY = SGP/SGP4

EPOCH          = 2026-02-07T15:56:09.445344
MEAN_MOTION    = 14.21973772
ECCENTRICITY   = .00349929
INCLINATION    = 71.1087
RA_OF_ASC_NODE = 151.1633
ARG_OF_PERICENTER = 176.1973
MEAN_ANOMALY   = 283.5300

EPHEMERIS_TYPE = 0
CLASSIFICATION_TYPE = U
NORAD_CAT_ID   = 15772
ELEMENT_SET_NO = 999
REV_AT_EPOCH   = 11012
BSTAR          = .10210721E-3
MEAN_MOTION_DOT = .179E-5
MEAN_MOTION_DDOT = 0

CCSDS_OMM_VERS = 2.0
CREATION_DATE  = 
ORIGINATOR     = 

OBJECT_NAME    = SL-14 R/B
OBJECT_ID      = 1985-069B
CENTER_NAME    = EARTH
REF_FRAME      = TEME
TIME_SYSTEM    = UTC
MEAN_ELEMENT_THEORY = SGP/SGP4

EPOCH          = 2026-02-07T12:28:11.794944
MEAN_MOTION    = 14.86397603
ECCENTRICITY   = .00173221
INCLINATION    = 82.5240
RA_OF_ASC_NODE = 53.3092
ARG_OF_PERICENTER = 294.5509
MEAN_ANOMALY   = 65.3902

EPHEMERIS_TYPE = 0
CLASSIFICATION_TYPE = U
NORAD_CAT_ID   = 15945
ELEMENT_SET_NO = 999
REV_AT_EPOCH   = 16835
BSTAR          = .73480359E-4
MEAN_MOTION_DOT = .674E-5
MEAN_MOTION_DDOT = 0

CCSDS_OMM_VERS = 2.0
CREATION_DATE  = 
ORIGINATOR     = 

OBJECT_NAME    = SL-16 R/B
OBJECT_ID      = 1985-097B
CENTER_NAME    = EARTH
REF_FRAME      = TEME
TIME_SYSTEM    = UTC
MEAN_ELEMENT_THEORY = SGP/SGP4

EPOCH          = 2026-02-07T15:00:15.134688
MEAN_MOTION    = 14.16596400
ECCENTRICITY   = .0009593
INCLINATION    = 71.0016
RA_OF_ASC_NODE = 203.8439
ARG_OF_PERICENTER = 294.8421
MEAN_ANOMALY   = 136.8700

EPHEMERIS_TYPE = 0
CLASSIFICATION_TYPE = U
NORAD_CAT_ID   = 16182
ELEMENT_SET_NO = 999
REV_AT_EPOCH   = 8297
BSTAR          = .7150086E-5
MEAN_MOTION_DOT = -.34E-6
MEAN_MOTION_DDOT = 0

CCSDS_OMM_VERS = 2.0
CREATION_DATE  = 
ORIGINATOR     = 

OBJECT_NAME    = SL-14 R/B
OBJECT_ID      = 1986-006B
CENTER_NAME    = EARTH
REF_FRAME      = TEME
TIME_SYSTEM    = UTC
MEAN_ELEMENT_THEORY = SGP/SGP4

EPOCH          = 2026-02-07T15:20:24.363168
MEAN_MOTION    = 14.86774064
ECCENTRICITY   = .00770264
INCLINATION    = 82.5269
RA_OF_ASC_NODE = 288.0217
ARG_OF_PERICENTER = 13.4795
MEAN_ANOMALY   = 346.8454

EPHEMERIS_TYPE = 0
CLASSIFICATION_TYPE = U
NORAD_CAT_ID   = 16496
ELEMENT_SET_NO = 999
REV_AT_EPOCH   = 14474
BSTAR          = .98763372E-4
MEAN_MOTION_DOT = .955E-5
MEAN_MOTION_DDOT = 0

CCSDS_OMM_VERS = 2.0
CREATION_DATE  = 
ORIGINATOR     = 

OBJECT_NAME    = COSMOS 1743
OBJECT_ID      = 1986-034A
CENTER_NAME    = EARTH
REF_FRAME      = TEME
TIME_SYSTEM    = UTC
MEAN_ELEMENT_THEORY = SGP/SGP4

EPOCH          = 2026-02-07T15:16:53.586048
MEAN_MOTION    = 15.56379282
ECCENTRICITY   = .00051276
INCLINATION    = 82.5329
RA_OF_ASC_NODE = 105.3161
ARG_OF_PERICENTER = 55.3863
MEAN_ANOMALY   = 304.7874

EPHEMERIS_TYPE = 0
CLASSIFICATION_TYPE = U
NORAD_CAT_ID   = 16719
ELEMENT_SET_NO = 999
REV_AT_EPOCH   = 17557
BSTAR          = .52842915E-3
MEAN_MOTION_DOT = .37421E-3
MEAN_MOTION_DDOT = 0

